{
  "norad_id": 19751,
  "name": "COSMOS 1989 (ETALON 1)",
  "history": [
    {
      "epoch": "2026-04-18T10:14:11.392800Z",
      "apogee_km": 19185.17358338192,
      "perigee_km": 19065.999783354277,
      "latitude_deg": -6.369526675912884,
      "longitude_deg": -102.88144331081021,
      "height_km": 19075.93825678718,
      "semi_major_axis_km": 25503.723683368098,
      "eccentricity": 0.0023364,
      "inclination_deg": 64.9128,
      "raan_deg": 74.238,
      "arg_perigee_deg": 217.6542,
      "mean_anomaly_deg": 329.4201,
      "mean_motion_rev_day": 2.13155906
    },
    {
      "epoch": "2026-04-19T19:24:09.323136Z",
      "apogee_km": 19185.162651187093,
      "perigee_km": 19066.012310858692,
      "latitude_deg": 11.42775321258268,
      "longitude_deg": 109.80644189346675,
      "height_km": 19087.288198266506,
      "semi_major_axis_km": 25503.72448102289,
      "eccentricity": 0.00233594,
      "inclination_deg": 64.9136,
      "raan_deg": 74.1908,
      "arg_perigee_deg": 217.6521,
      "mean_anomaly_deg": 309.8509,
      "mean_motion_rev_day": 2.13155896
    },
    {
      "epoch": "2026-04-21T16:33:22.868064Z",
      "apogee_km": 19185.159750643765,
      "perigee_km": 19066.015530463963,
      "latitude_deg": 8.063212650109692,
      "longitude_deg": 152.20958508853005,
      "height_km": 19084.448252583585,
      "semi_major_axis_km": 25503.72464055386,
      "eccentricity": 0.00233582,
      "inclination_deg": 64.9148,
      "raan_deg": 74.1265,
      "arg_perigee_deg": 217.6606,
      "mean_anomaly_deg": 313.556,
      "mean_motion_rev_day": 2.13155894
    },
    {
      "epoch": "2026-04-23T13:37:09.460704Z",
      "apogee_km": 19185.15973141934,
      "perigee_km": 19066.013475785912,
      "latitude_deg": 7.330871429735945,
      "longitude_deg": -165.29919508978807,
      "height_km": 19083.885660310563,
      "semi_major_axis_km": 25503.723603602622,
      "eccentricity": 0.00233586,
      "inclination_deg": 64.9158,
      "raan_deg": 74.0623,
      "arg_perigee_deg": 217.6753,
      "mean_anomaly_deg": 314.3513,
      "mean_motion_rev_day": 2.13155907
    },
    {
      "epoch": "2026-04-24T21:08:41.054208Z",
      "apogee_km": 19185.146880381893,
      "perigee_km": 19066.024093390144,
      "latitude_deg": 63.216126431322124,
      "longitude_deg": 16.123499982557217,
      "height_km": 19163.440737225734,
      "semi_major_axis_km": 25503.722486886018,
      "eccentricity": 0.0023354,
      "inclination_deg": 64.9165,
      "raan_deg": 74.0175,
      "arg_perigee_deg": 217.6687,
      "mean_anomaly_deg": 242.3295,
      "mean_motion_rev_day": 2.13155921
    },
    {
      "epoch": "2026-04-25T10:56:22.111008Z",
      "apogee_km": 19185.153971836222,
      "perigee_km": 19066.015885219298,
      "latitude_deg": -0.8909947272773134,
      "longitude_deg": -123.16533837018538,
      "height_km": 19078.457451763665,
      "semi_major_axis_km": 25503.72192852776,
      "eccentricity": 0.0023357,
      "inclination_deg": 64.9169,
      "raan_deg": 73.9978,
      "arg_perigee_deg": 217.6733,
      "mean_anomaly_deg": 323.3879,
      "mean_motion_rev_day": 2.13155928
    },
    {
      "epoch": "2026-04-26T09:35:17.140416Z",
      "apogee_km": 19185.150842577706,
      "perigee_km": 19066.015823859547,
      "latitude_deg": -4.672068476335898,
      "longitude_deg": -102.08555815886754,
      "height_km": 19076.63035168007,
      "semi_major_axis_km": 25503.720333218625,
      "eccentricity": 0.00233564,
      "inclination_deg": 64.9174,
      "raan_deg": 73.9655,
      "arg_perigee_deg": 217.6679,
      "mean_anomaly_deg": 327.544,
      "mean_motion_rev_day": 2.13155948
    },
    {
      "epoch": "2026-04-27T19:12:32.990976Z",
      "apogee_km": 19185.149894296705,
      "perigee_km": 19066.011826683214,
      "latitude_deg": -0.10247157706127964,
      "longitude_deg": 110.02741722873726,
      "height_km": 19078.87000377164,
      "semi_major_axis_km": 25503.71786048996,
      "eccentricity": 0.0023357,
      "inclination_deg": 64.9182,
      "raan_deg": 73.9176,
      "arg_perigee_deg": 217.6542,
      "mean_anomaly_deg": 322.5336,
      "mean_motion_rev_day": 2.13155979
    },
    {
      "epoch": "2026-04-28T17:21:25.083072Z",
      "apogee_km": 19185.15518126544,
      "perigee_km": 19066.00334909749,
      "latitude_deg": 10.679263829764363,
      "longitude_deg": 131.76537469886065,
      "height_km": 19086.609246506003,
      "semi_major_axis_km": 25503.71626518146,
      "eccentricity": 0.00233597,
      "inclination_deg": 64.9187,
      "raan_deg": 73.8861,
      "arg_perigee_deg": 217.6481,
      "mean_anomaly_deg": 310.6776,
      "mean_motion_rev_day": 2.13155999
    },
    {
      "epoch": "2026-05-02T06:35:13.185888Z",
      "apogee_km": 19185.180634401513,
      "perigee_km": 19065.966090682847,
      "latitude_deg": 12.273568539483808,
      "longitude_deg": 120.58418841184249,
      "height_km": 19179.88803742978,
      "semi_major_axis_km": 25503.71036254218,
      "eccentricity": 0.0023372,
      "inclination_deg": 64.9206,
      "raan_deg": 73.7648,
      "arg_perigee_deg": 217.6571,
      "mean_anomaly_deg": 155.7526,
      "mean_motion_rev_day": 2.13156073
    },
    {
      "epoch": "2026-05-03T09:59:51.116640Z",
      "apogee_km": 19185.17780976851,
      "perigee_km": 19065.96684141627,
      "latitude_deg": 9.330636918743574,
      "longitude_deg": -121.97059186811518,
      "height_km": 19085.414671416274,
      "semi_major_axis_km": 25503.70932559239,
      "eccentricity": 0.00233713,
      "inclination_deg": 64.9212,
      "raan_deg": 73.7257,
      "arg_perigee_deg": 217.6668,
      "mean_anomaly_deg": 312.1477,
      "mean_motion_rev_day": 2.13156086
    }
  ]
}